{
  "links" : {
    "next" : "https://api.nasa.gov/neo/rest/v1/feed?start_date=2010-06-23&end_date=2010-06-23&detailed=true&api_key=t0TVs3DtDT2H8Oy2Zy8m2eVrNsAVKAexjcZXUckd",
    "prev" : "https://api.nasa.gov/neo/rest/v1/feed?start_date=2010-06-21&end_date=2010-06-21&detailed=true&api_key=t0TVs3DtDT2H8Oy2Zy8m2eVrNsAVKAexjcZXUckd",
    "self" : "https://api.nasa.gov/neo/rest/v1/feed?start_date=2010-06-22&end_date=2010-06-22&detailed=true&api_key=t0TVs3DtDT2H8Oy2Zy8m2eVrNsAVKAexjcZXUckd"
  },
  "element_count" : 7,
  "near_earth_objects" : {
    "2010-06-22" : [ {
      "links" : {
        "self" : "https://api.nasa.gov/neo/rest/v1/neo/2471083?api_key=t0TVs3DtDT2H8Oy2Zy8m2eVrNsAVKAexjcZXUckd"
      },
      "neo_reference_id" : "2471083",
      "name" : "471083 (2009 XF2)",
      "nasa_jpl_url" : "http://ssd.jpl.nasa.gov/sbdb.cgi?sstr=2471083",
      "absolute_magnitude_h" : 19.9,
      "estimated_diameter" : {
        "kilometers" : {
          "estimated_diameter_min" : 0.2783267681,
          "estimated_diameter_max" : 0.6223575734
        },
        "meters" : {
          "estimated_diameter_min" : 278.3267680719,
          "estimated_diameter_max" : 622.3575733667
        },
        "miles" : {
          "estimated_diameter_min" : 0.1729441822,
          "estimated_diameter_max" : 0.3867149477
        },
        "feet" : {
          "estimated_diameter_min" : 913.1455937611,
          "estimated_diameter_max" : 2041.8556210042
        }
      },
      "is_potentially_hazardous_asteroid" : false,
      "close_approach_data" : [ {
        "close_approach_date" : "2010-06-22",
        "epoch_date_close_approach" : 1277190000000,
        "relative_velocity" : {
          "kilometers_per_second" : "15.2549558894",
          "kilometers_per_hour" : "54917.8412019772",
          "miles_per_hour" : "34123.8108290841"
        },
        "miss_distance" : {
          "astronomical" : "0.2830674389",
          "lunar" : "110.1132354736",
          "kilometers" : "42346284",
          "miles" : "26312762"
        },
        "orbiting_body" : "Earth"
      } ],
      "orbital_data" : {
        "orbit_id" : "37",
        "orbit_determination_date" : "2017-04-06 09:19:12",
        "orbit_uncertainty" : "0",
        "minimum_orbit_intersection" : ".0647323",
        "jupiter_tisserand_invariant" : "4.982",
        "epoch_osculation" : "2458000.5",
        "eccentricity" : ".246945251153436",
        "semi_major_axis" : "1.285529414204267",
        "inclination" : "14.01328687299597",
        "ascending_node_longitude" : "88.50034523056725",
        "orbital_period" : "532.3796595166903",
        "perihelion_distance" : ".9680740301484645",
        "perihelion_argument" : "113.3836032352632",
        "aphelion_distance" : "1.602984798260069",
        "perihelion_time" : "2457983.785336079957",
        "mean_anomaly" : "11.30260877486977",
        "mean_motion" : ".6762091555616878",
        "equinox" : "J2000"
      }
    } ]
  }
}